STARLINK-2381
1 17800C 21018P   21326.19062699  .00007598  00000-0  50906-3 0  3263
2 17800  53.0562  72.8830 0001242  76.0214 338.1762 15.06391554    19
